start=new Date('2021-09-16T00:00:00.000Z').valueOf();
sats=[{"CENTER_NAME":"EARTH","SITE":"AFETR","TLE_LINE2":"2 48027  53.0540  94.8829 0001957  75.3794 128.6187 15.06384798  3598","REV_AT_EPOCH":"359","SEMIMAJOR_AXIS":"6925.395","ECCENTRICITY":"0.00019570","LAUNCH_DATE":"2021-03-24","RA_OF_ASC_NODE":"94.8829","CLASSIFICATION_TYPE":"U","OBJECT_NAME":"STARLINK-2300","OBJECT_TYPE":"PAYLOAD","DECAY_DATE":null,"OBJECT_ID":"2021-024BC","MEAN_MOTION_DDOT":"0.0000000000000","PERIAPSIS":"545.905","EPHEMERIS_TYPE":"0","GP_ID":"184788662","REF_FRAME":"TEME","MEAN_ANOMALY":"128.6187","MEAN_ELEMENT_THEORY":"SGP4","MEAN_MOTION_DOT":"0.00023049","INCLINATION":"53.0540","NORAD_CAT_ID":"48027","MEAN_MOTION":"15.06384798","TIME_SYSTEM":"UTC","FILE":"3116597","EPOCH":"2021-09-15T22:00:00.999936","APOAPSIS":"548.615","RCS_SIZE":"LARGE","ARG_OF_PERICENTER":"75.3794","BSTAR":"0.00156180000000","ELEMENT_SET_NO":"999","COUNTRY_CODE":"US","TLE_LINE1":"1 48027U 21024BC  21258.91667824  .00023049  00000-0  15618-2 0  9992","PERIOD":"95.593"},{"TLE_LINE2":"2 48028  53.0412  52.9605 0001146  65.0418 287.7442 15.48393614  3700","SITE":"AFETR","CENTER_NAME":"EARTH","SEMIMAJOR_AXIS":"6799.562","REV_AT_EPOCH":"370","LAUNCH_DATE":"2021-03-24","RA_OF_ASC_NODE":"52.9605","ECCENTRICITY":"0.00011460","CLASSIFICATION_TYPE":"U","OBJECT_NAME":"STARLINK-2264","OBJECT_TYPE":"PAYLOAD","MEAN_MOTION_DDOT":"0.0000000000000","OBJECT_ID":"2021-024BD","DECAY_DATE":null,"GP_ID":"184787413","REF_FRAME":"TEME","MEAN_ANOMALY":"287.7442","EPHEMERIS_TYPE":"0","PERIAPSIS":"420.648","MEAN_MOTION_DOT":"-0.00949858","MEAN_ELEMENT_THEORY":"SGP4","FILE":"3116597","NORAD_CAT_ID":"48028","MEAN_MOTION":"15.48393614","TIME_SYSTEM":"UTC","INCLINATION":"53.0412","EPOCH":"2021-09-15T22:00:00.999936","APOAPSIS":"422.206","RCS_SIZE":"LARGE","ELEMENT_SET_NO":"999","BSTAR":"-0.01923100000000","ARG_OF_PERICENTER":"65.0418","TLE_LINE1":"1 48028U 21024BD  21258.91667824 -.00949858  00000-0 -19231-1 0  9994","COUNTRY_CODE":"US","PERIOD":"93.000"},{"BSTAR":"-0.00022991000000","ELEMENT_SET_NO":"999","ARG_OF_PERICENTER":"78.0314","TLE_LINE1":"1 48029U 21024BE  21258.91667824 -.00003703  00000-0 -22991-3 0  9994","COUNTRY_CODE":"US","PERIOD":"95.593","APOAPSIS":"548.804","RCS_SIZE":"LARGE","FILE":"3116597","INCLINATION":"53.0548","MEAN_MOTION":"15.06379573","NORAD_CAT_ID":"48029","TIME_SYSTEM":"UTC","EPOCH":"2021-09-15T22:00:00.999936","GP_ID":"184788163","MEAN_ANOMALY":"276.0242","REF_FRAME":"TEME","PERIAPSIS":"545.748","EPHEMERIS_TYPE":"0","MEAN_ELEMENT_THEORY":"SGP4","MEAN_MOTION_DOT":"-0.00003703","MEAN_MOTION_DDOT":"0.0000000000000","OBJECT_ID":"2021-024BE","DECAY_DATE":null,"OBJECT_TYPE":"PAYLOAD","LAUNCH_DATE":"2021-03-24","RA_OF_ASC_NODE":"114.8907","ECCENTRICITY":"0.00022060","CLASSIFICATION_TYPE":"U","OBJECT_NAME":"STARLINK-2299","TLE_LINE2":"2 48029  53.0548 114.8907 0002206  78.0314 276.0242 15.06379573  3599","CENTER_NAME":"EARTH","SITE":"AFETR","REV_AT_EPOCH":"359","SEMIMAJOR_AXIS":"6925.411"},{"OBJECT_ID":"2021-024BF","DECAY_DATE":null,"MEAN_MOTION_DDOT":"0.0000000000000","OBJECT_TYPE":"PAYLOAD","CLASSIFICATION_TYPE":"U","OBJECT_NAME":"STARLINK-2268","ECCENTRICITY":"0.00018130","LAUNCH_DATE":"2021-03-24","RA_OF_ASC_NODE":"119.8790","REV_AT_EPOCH":"359","SEMIMAJOR_AXIS":"6925.368","SITE":"AFETR","CENTER_NAME":"EARTH","TLE_LINE2":"2 48030  53.0534 119.8790 0001813  86.2908 120.1918 15.06393510  3590","TLE_LINE1":"1 48030U 21024BF  21258.91667824 -.00005568  00000-0 -35521-3 0  9990","COUNTRY_CODE":"US","PERIOD":"95.593","ARG_OF_PERICENTER":"86.2908","ELEMENT_SET_NO":"999","BSTAR":"-0.00035521000000","RCS_SIZE":"LARGE","APOAPSIS":"548.489","EPOCH":"2021-09-15T22:00:00.999936","NORAD_CAT_ID":"48030","MEAN_MOTION":"15.06393510","TIME_SYSTEM":"UTC","INCLINATION":"53.0534","FILE":"3116597","MEAN_MOTION_DOT":"-0.00005568","MEAN_ELEMENT_THEORY":"SGP4","EPHEMERIS_TYPE":"0","PERIAPSIS":"545.978","MEAN_ANOMALY":"120.1918","GP_ID":"184788915","REF_FRAME":"TEME"},{"TIME_SYSTEM":"UTC","NORAD_CAT_ID":"48031","MEAN_MOTION":"15.73219261","INCLINATION":"53.0456","FILE":"3116597","EPOCH":"2021-09-15T22:00:00.999936","EPHEMERIS_TYPE":"0","PERIAPSIS":"346.764","GP_ID":"184789163","MEAN_ANOMALY":"172.6208","REF_FRAME":"TEME","MEAN_MOTION_DOT":"0.00057675","MEAN_ELEMENT_THEORY":"SGP4","ARG_OF_PERICENTER":"3.0326","ELEMENT_SET_NO":"999","BSTAR":"0.00041196000000","COUNTRY_CODE":"US","TLE_LINE1":"1 48031U 21024BG  21258.91667824  .00057675  00000-0  41196-3 0  9990","PERIOD":"91.532","APOAPSIS":"352.647","RCS_SIZE":"LARGE","ECCENTRICITY":"0.00043720","LAUNCH_DATE":"2021-03-24","RA_OF_ASC_NODE":"51.9605","OBJECT_NAME":"STARLINK-2267","CLASSIFICATION_TYPE":"U","SITE":"AFETR","CENTER_NAME":"EARTH","TLE_LINE2":"2 48031  53.0456  51.9605 0004372   3.0326 172.6208 15.73219261  3700","REV_AT_EPOCH":"370","SEMIMAJOR_AXIS":"6727.840","OBJECT_ID":"2021-024BG","DECAY_DATE":null,"MEAN_MOTION_DDOT":"0.0000000000000","OBJECT_TYPE":"PAYLOAD"},{"BSTAR":"0.00039948000000","ELEMENT_SET_NO":"999","ARG_OF_PERICENTER":"2.4541","TLE_LINE1":"1 48032U 21024BH  21258.91667824  .00055841  00000-0  39948-3 0  9996","PERIOD":"91.533","COUNTRY_CODE":"US","APOAPSIS":"352.723","RCS_SIZE":"LARGE","FILE":"3116597","INCLINATION":"53.0455","NORAD_CAT_ID":"48032","TIME_SYSTEM":"UTC","MEAN_MOTION":"15.73196407","EPOCH":"2021-09-15T22:00:00.999936","GP_ID":"184787914","REF_FRAME":"TEME","MEAN_ANOMALY":"173.8979","PERIAPSIS":"346.818","EPHEMERIS_TYPE":"0","MEAN_ELEMENT_THEORY":"SGP4","MEAN_MOTION_DOT":"0.00055841","MEAN_MOTION_DDOT":"0.0000000000000","DECAY_DATE":null,"OBJECT_ID":"2021-024BH","OBJECT_TYPE":"PAYLOAD","RA_OF_ASC_NODE":"51.9566","LAUNCH_DATE":"2021-03-24","ECCENTRICITY":"0.00043890","OBJECT_NAME":"STARLINK-2297","CLASSIFICATION_TYPE":"U","TLE_LINE2":"2 48032  53.0455  51.9566 0004389   2.4541 173.8979 15.73196407  3700","CENTER_NAME":"EARTH","SITE":"AFETR","SEMIMAJOR_AXIS":"6727.905","REV_AT_EPOCH":"370"},{"DECAY_DATE":null,"OBJECT_ID":"2021-024BJ","MEAN_MOTION_DDOT":"0.0000000000000","OBJECT_TYPE":"PAYLOAD","ECCENTRICITY":"0.00022110","LAUNCH_DATE":"2021-03-24","RA_OF_ASC_NODE":"114.8992","OBJECT_NAME":"STARLINK-2286","CLASSIFICATION_TYPE":"U","SITE":"AFETR","CENTER_NAME":"EARTH","TLE_LINE2":"2 48033  53.0544 114.8992 0002211  77.6058 281.5083 15.06394933  3603","REV_AT_EPOCH":"360","SEMIMAJOR_AXIS":"6925.364","ARG_OF_PERICENTER":"77.6058","ELEMENT_SET_NO":"999","BSTAR":"-0.00026542000000","COUNTRY_CODE":"US","TLE_LINE1":"1 48033U 21024BJ  21258.91667824 -.00004233  00000-0 -26542-3 0  9994","PERIOD":"95.592","APOAPSIS":"548.760","RCS_SIZE":"LARGE","NORAD_CAT_ID":"48033","TIME_SYSTEM":"UTC","MEAN_MOTION":"15.06394933","INCLINATION":"53.0544","FILE":"3116597","EPOCH":"2021-09-15T22:00:00.999936","EPHEMERIS_TYPE":"0","PERIAPSIS":"545.698","REF_FRAME":"TEME","GP_ID":"184787663","MEAN_ANOMALY":"281.5083","MEAN_MOTION_DOT":"-0.00004233","MEAN_ELEMENT_THEORY":"SGP4"},{"ELEMENT_SET_NO":"999","BSTAR":"-0.00003731900000","ARG_OF_PERICENTER":"78.8770","PERIOD":"95.593","TLE_LINE1":"1 48034U 21024BK  21258.91667824 -.00000837  00000-0 -37319-4 0  9996","COUNTRY_CODE":"US","APOAPSIS":"548.612","RCS_SIZE":"LARGE","FILE":"3116597","NORAD_CAT_ID":"48034","MEAN_MOTION":"15.06390789","TIME_SYSTEM":"UTC","INCLINATION":"53.0543","EPOCH":"2021-09-15T22:00:00.999936","REF_FRAME":"TEME","GP_ID":"184788415","MEAN_ANOMALY":"235.0922","EPHEMERIS_TYPE":"0","PERIAPSIS":"545.871","MEAN_MOTION_DOT":"-0.00000837","MEAN_ELEMENT_THEORY":"SGP4","MEAN_MOTION_DDOT":"0.0000000000000","OBJECT_ID":"2021-024BK","DECAY_DATE":null,"OBJECT_TYPE":"PAYLOAD","LAUNCH_DATE":"2021-03-24","RA_OF_ASC_NODE":"114.8867","ECCENTRICITY":"0.00019790","CLASSIFICATION_TYPE":"U","OBJECT_NAME":"STARLINK-2288","TLE_LINE2":"2 48034  53.0543 114.8867 0001979  78.8770 235.0922 15.06390789  3597","SITE":"AFETR","CENTER_NAME":"EARTH","SEMIMAJOR_AXIS":"6925.377","REV_AT_EPOCH":"359"},{"ECCENTRICITY":"0.00043760","LAUNCH_DATE":"2021-03-24","RA_OF_ASC_NODE":"51.9575","OBJECT_NAME":"STARLINK-2287","CLASSIFICATION_TYPE":"U","CENTER_NAME":"EARTH","SITE":"AFETR","TLE_LINE2":"2 48035  53.0457  51.9575 0004376 343.2324 194.9820 15.73194923  3706","SEMIMAJOR_AXIS":"6727.910","REV_AT_EPOCH":"370","DECAY_DATE":null,"OBJECT_ID":"2021-024BL","MEAN_MOTION_DDOT":"0.0000000000000","OBJECT_TYPE":"PAYLOAD","INCLINATION":"53.0457","NORAD_CAT_ID":"48035","TIME_SYSTEM":"UTC","MEAN_MOTION":"15.73194923","FILE":"3116597","EPOCH":"2021-09-15T22:00:00.999936","PERIAPSIS":"346.831","EPHEMERIS_TYPE":"0","GP_ID":"184788663","MEAN_ANOMALY":"194.9820","REF_FRAME":"TEME","MEAN_ELEMENT_THEORY":"SGP4","MEAN_MOTION_DOT":"0.00078886","ARG_OF_PERICENTER":"343.2324","BSTAR":"0.00056102000000","ELEMENT_SET_NO":"999","TLE_LINE1":"1 48035U 21024BL  21258.91667824  .00078886  00000-0  56102-3 0  9994","COUNTRY_CODE":"US","PERIOD":"91.533","APOAPSIS":"352.719","RCS_SIZE":"MEDIUM"},{"EPOCH":"2021-09-15T22:00:00.999936","FILE":"3116597","TIME_SYSTEM":"UTC","NORAD_CAT_ID":"48036","MEAN_MOTION":"15.06402965","INCLINATION":"53.0550","MEAN_MOTION_DOT":"0.00000033","MEAN_ELEMENT_THEORY":"SGP4","GP_ID":"184787414","REF_FRAME":"TEME","MEAN_ANOMALY":"179.0111","EPHEMERIS_TYPE":"0","PERIAPSIS":"545.932","TLE_LINE1":"1 48036U 21024BM  21258.91667824  .00000033  00000-0  21155-4 0  9995","PERIOD":"95.592","COUNTRY_CODE":"US","ELEMENT_SET_NO":"999","BSTAR":"0.00002115500000","ARG_OF_PERICENTER":"95.0058","RCS_SIZE":"LARGE","APOAPSIS":"548.477","OBJECT_NAME":"STARLINK-2295","CLASSIFICATION_TYPE":"U","RA_OF_ASC_NODE":"114.8919","LAUNCH_DATE":"2021-03-24","ECCENTRICITY":"0.00018370","REV_AT_EPOCH":"359","SEMIMAJOR_AXIS":"6925.339","TLE_LINE2":"2 48036  53.0550 114.8919 0001837  95.0058 179.0111 15.06402965  3595","SITE":"AFETR","CENTER_NAME":"EARTH","MEAN_MOTION_DDOT":"0.0000000000000","DECAY_DATE":null,"OBJECT_ID":"2021-024BM","OBJECT_TYPE":"PAYLOAD"}];
